{"type": "FeatureCollection", "features": [ {"type": "Feature", "properties": {"norad_id": 33799, "name": "COSMOS 2251 DEB", "group": "cosmos-2251-debris", "lat": 73.8718691718181, "lon": 142.75524425365438, "alt_km": 610.5781603898567, "timestamp": "2025-12-23T09:49:07.475550+00:00", "meta": {"OBJECT_NAME": "COSMOS 2251 DEB", "OBJECT_ID": "1993-036AQ", "EPOCH": "2025-12-22T10:46:25.690944", "MEAN_MOTION": 14.79744929, "ECCENTRICITY": 0.00224679, "INCLINATION": 74.0318, "RA_OF_ASC_NODE": 62.6676, "ARG_OF_PERICENTER": 129.9441, "MEAN_ANOMALY": 245.0155, "EPHEMERIS_TYPE": 0, "CLASSIFICATION_TYPE": "U", "NORAD_CAT_ID": 33799, "ELEMENT_SET_NO": 999, "REV_AT_EPOCH": 88955, "BSTAR": 0.0013396152, "MEAN_MOTION_DOT": 0.00010098, "MEAN_MOTION_DDOT": 0}, "tle": {"line1": "1 33799U 93036AQ  25356.44890846  .00010098  00000+0  13396-2 0  9997", "line2": "2 33799  74.0318  62.6676 0022467 129.9441 245.0155 14.79744929889553"}}, "geometry": {"type": "Point", "coordinates": [142.75524425365438, 73.8718691718181]}}, {"type": "Feature", "properties": {"norad_id": 33805, "name": "COSMOS 2251 DEB", "group": "cosmos-2251-debris", "lat": 67.92000270911306, "lon": 66.13274712830513, "alt_km": 651.4870075616282, "timestamp": "2025-12-23T09:49:07.475561+00:00", "meta": {"OBJECT_NAME": "COSMOS 2251 DEB", "OBJECT_ID": "1993-036AW", "EPOCH": "2025-12-22T20:09:50.222304", "MEAN_MOTION": 14.57876564, "ECCENTRICITY": 0.00599354, "INCLINATION": 74.0312, "RA_OF_ASC_NODE": 292.1161, "ARG_OF_PERICENTER": 118.1542, "MEAN_ANOMALY": 242.5696, "EPHEMERIS_TYPE": 0, "CLASSIFICATION_TYPE": "U", "NORAD_CAT_ID": 33805, "ELEMENT_SET_NO": 999, "REV_AT_EPOCH": 89374, "BSTAR": 0.00020045113, "MEAN_MOTION_DOT": 9.11e-06, "MEAN_MOTION_DDOT": 0}, "tle": {"line1": "1 33805U 93036AW  25356.84016461  .00000911  00000+0  20045-3 0  9995", "line2": "2 33805  74.0312 292.1161 0059935 118.1542 242.5696 14.57876564893741"}}, "geometry": {"type": "Point", "coordinates": [66.13274712830513, 67.92000270911306]}}, {"type": "Feature", "properties": {"norad_id": 33811, "name": "COSMOS 2251 DEB", "group": "cosmos-2251-debris", "lat": -1.2534039767371288, "lon": -79.83968808213481, "alt_km": 531.1395048587883, "timestamp": "2025-12-23T09:49:07.475572+00:00", "meta": {"OBJECT_NAME": "COSMOS 2251 DEB", "OBJECT_ID": "1993-036BC", "EPOCH": "2025-12-22T23:00:07.452576", "MEAN_MOTION": 15.05551744, "ECCENTRICITY": 0.00309923, "INCLINATION": 73.8383, "RA_OF_ASC_NODE": 281.4585, "ARG_OF_PERICENTER": 0.2664, "MEAN_ANOMALY": 76.8101, "EPHEMERIS_TYPE": 0, "CLASSIFICATION_TYPE": "U", "NORAD_CAT_ID": 33811, "ELEMENT_SET_NO": 999, "REV_AT_EPOCH": 90172, "BSTAR": 0.0011406014, "MEAN_MOTION_DOT": 0.00016603, "MEAN_MOTION_DDOT": 0}, "tle": {"line1": "1 33811U 93036BC  25356.95841959  .00016603  00000+0  11406-2 0  9997", "line2": "2 33811  73.8383 281.4585 0030992   0.2664  76.8101 15.05551744901723"}}, "geometry": {"type": "Point", "coordinates": [-79.83968808213481, -1.2534039767371288]}}, {"type": "Feature", "properties": {"norad_id": 33815, "name": "COSMOS 2251 DEB", "group": "cosmos-2251-debris", "lat": -59.85588679084034, "lon": 3.8424729227450523, "alt_km": 509.75732642437015, "timestamp": "2025-12-23T09:49:07.475582+00:00", "meta": {"OBJECT_NAME": "COSMOS 2251 DEB", "OBJECT_ID": "1993-036BG", "EPOCH": "2025-12-22T20:38:53.560032", "MEAN_MOTION": 15.20664876, "ECCENTRICITY": 0.00025939, "INCLINATION": 73.9518, "RA_OF_ASC_NODE": 155.2836, "ARG_OF_PERICENTER": 323.9754, "MEAN_ANOMALY": 157.0749, "EPHEMERIS_TYPE": 0, "CLASSIFICATION_TYPE": "U", "NORAD_CAT_ID": 33815, "ELEMENT_SET_NO": 999, "REV_AT_EPOCH": 88524, "BSTAR": 0.0069341072, "MEAN_MOTION_DOT": 0.00155613, "MEAN_MOTION_DDOT": 0}, "tle": {"line1": "1 33815U 93036BG  25356.86034213  .00155613  00000+0  69341-2 0  9994", "line2": "2 33815  73.9518 155.2836 0002593 323.9754 157.0749 15.20664876885242"}}, "geometry": {"type": "Point", "coordinates": [3.8424729227450523, -59.85588679084034]}}, {"type": "Feature", "properties": {"norad_id": 33816, "name": "COSMOS 2251 DEB", "group": "cosmos-2251-debris", "lat": -44.25576405699492, "lon": -76.3374679910624, "alt_km": 1080.942038940274, "timestamp": "2025-12-23T09:49:07.475593+00:00", "meta": {"OBJECT_NAME": "COSMOS 2251 DEB", "OBJECT_ID": "1993-036BH", "EPOCH": "2025-12-22T15:22:36.592320", "MEAN_MOTION": 13.8179387, "ECCENTRICITY": 0.02642212, "INCLINATION": 73.8952, "RA_OF_ASC_NODE": 88.6151, "ARG_OF_PERICENTER": 99.5878, "MEAN_ANOMALY": 263.5203, "EPHEMERIS_TYPE": 0, "CLASSIFICATION_TYPE": "U", "NORAD_CAT_ID": 33816, "ELEMENT_SET_NO": 999, "REV_AT_EPOCH": 84810, "BSTAR": 0.00031633974, "MEAN_MOTION_DOT": 4.2e-06, "MEAN_MOTION_DDOT": 0}, "tle": {"line1": "1 33816U 93036BH  25356.64070130  .00000420  00000+0  31634-3 0  9999", "line2": "2 33816  73.8952  88.6151 0264221  99.5878 263.5203 13.81793870848108"}}, "geometry": {"type": "Point", "coordinates": [-76.3374679910624, -44.25576405699492]}}, {"type": "Feature", "properties": {"norad_id": 33818, "name": "COSMOS 2251 DEB", "group": "cosmos-2251-debris", "lat": -58.36636015528315, "lon": -8.216454175383355, "alt_km": 539.7606661003501, "timestamp": "2025-12-23T09:49:07.475603+00:00", "meta": {"OBJECT_NAME": "COSMOS 2251 DEB", "OBJECT_ID": "1993-036BK", "EPOCH": "2025-12-22T20:43:39.309024", "MEAN_MOTION": 15.13280999, "ECCENTRICITY": 0.00247118, "INCLINATION": 74.0784, "RA_OF_ASC_NODE": 145.3048, "ARG_OF_PERICENTER": 129.3803, "MEAN_ANOMALY": 22.2509, "EPHEMERIS_TYPE": 0, "CLASSIFICATION_TYPE": "U", "NORAD_CAT_ID": 33818, "ELEMENT_SET_NO": 999, "REV_AT_EPOCH": 90015, "BSTAR": 0.0026025629, "MEAN_MOTION_DOT": 0.00046927, "MEAN_MOTION_DDOT": 0}, "tle": {"line1": "1 33818U 93036BK  25356.86364941  .00046927  00000+0  26026-2 0  9991", "line2": "2 33818  74.0784 145.3048 0024711 129.3803  22.2509 15.13280999900153"}}, "geometry": {"type": "Point", "coordinates": [-8.216454175383355, -58.36636015528315]}}, {"type": "Feature", "properties": {"norad_id": 33819, "name": "COSMOS 2251 DEB", "group": "cosmos-2251-debris", "lat": 27.349557106806706, "lon": 2.1122707746827674, "alt_km": 796.279516057386, "timestamp": "2025-12-23T09:49:07.475614+00:00", "meta": {"OBJECT_NAME": "COSMOS 2251 DEB", "OBJECT_ID": "1993-036BL", "EPOCH": "2025-12-22T16:42:26.554752", "MEAN_MOTION": 14.3225403, "ECCENTRICITY": 0.00894514, "INCLINATION": 74.1775, "RA_OF_ASC_NODE": 191.836, "ARG_OF_PERICENTER": 50.1598, "MEAN_ANOMALY": 25.5308, "EPHEMERIS_TYPE": 0, "CLASSIFICATION_TYPE": "U", "NORAD_CAT_ID": 33819, "ELEMENT_SET_NO": 999, "REV_AT_EPOCH": 87638, "BSTAR": 0.00047649725, "MEAN_MOTION_DOT": 1.319e-05, "MEAN_MOTION_DDOT": 0}, "tle": {"line1": "1 33819U 93036BL  25356.69614068  .00001319  00000+0  47650-3 0  9994", "line2": "2 33819  74.1775 191.8360 0089451  50.1598  25.5308 14.32254030876389"}}, "geometry": {"type": "Point", "coordinates": [2.1122707746827674, 27.349557106806706]}}, {"type": "Feature", "properties": {"norad_id": 33821, "name": "COSMOS 2251 DEB", "group": "cosmos-2251-debris", "lat": 7.425753040282025, "lon": -61.86821410056696, "alt_km": 457.929975986659, "timestamp": "2025-12-23T09:49:07.475625+00:00", "meta": {"OBJECT_NAME": "COSMOS 2251 DEB", "OBJECT_ID": "1993-036BN", "EPOCH": "2025-12-22T17:20:01.992192", "MEAN_MOTION": 15.25902434, "ECCENTRICITY": 0.00497777, "INCLINATION": 74.0302, "RA_OF_ASC_NODE": 121.7236, "ARG_OF_PERICENTER": 151.839, "MEAN_ANOMALY": 208.552, "EPHEMERIS_TYPE": 0, "CLASSIFICATION_TYPE": "U", "NORAD_CAT_ID": 33821, "ELEMENT_SET_NO": 999, "REV_AT_EPOCH": 75153, "BSTAR": 0.0012283454, "MEAN_MOTION_DOT": 0.00032748, "MEAN_MOTION_DDOT": 0}, "tle": {"line1": "1 33821U 93036BN  25356.72224528  .00032748  00000+0  12283-2 0  9992", "line2": "2 33821  74.0302 121.7236 0049777 151.8390 208.5520 15.25902434751536"}}, "geometry": {"type": "Point", "coordinates": [-61.86821410056696, 7.425753040282025]}}, {"type": "Feature", "properties": {"norad_id": 33822, "name": "COSMOS 2251 DEB", "group": "cosmos-2251-debris", "lat": -34.29509480987035, "lon": 163.6119837801328, "alt_km": 882.7878066870508, "timestamp": "2025-12-23T09:49:07.475636+00:00", "meta": {"OBJECT_NAME": "COSMOS 2251 DEB", "OBJECT_ID": "1993-036BP", "EPOCH": "2025-12-22T22:40:58.935648", "MEAN_MOTION": 14.13119133, "ECCENTRICITY": 0.01527688, "INCLINATION": 74.0676, "RA_OF_ASC_NODE": 175.6652, "ARG_OF_PERICENTER": 219.4908, "MEAN_ANOMALY": 263.5608, "EPHEMERIS_TYPE": 0, "CLASSIFICATION_TYPE": "U", "NORAD_CAT_ID": 33822, "ELEMENT_SET_NO": 999, "REV_AT_EPOCH": 86198, "BSTAR": 0.0014146993, "MEAN_MOTION_DOT": 2.93e-05, "MEAN_MOTION_DDOT": 0}, "tle": {"line1": "1 33822U 93036BP  25356.94512657  .00002930  00000+0  14147-2 0  9991", "line2": "2 33822  74.0676 175.6652 0152768 219.4908 263.5608 14.13119133861983"}}, "geometry": {"type": "Point", "coordinates": [163.6119837801328, -34.29509480987035]}}, {"type": "Feature", "properties": {"norad_id": 33823, "name": "COSMOS 2251 DEB", "group": "cosmos-2251-debris", "lat": -33.549206796808264, "lon": 119.5241341176808, "alt_km": 850.3963794411238, "timestamp": "2025-12-23T09:49:07.475647+00:00", "meta": {"OBJECT_NAME": "COSMOS 2251 DEB", "OBJECT_ID": "1993-036BQ", "EPOCH": "2025-12-22T08:20:25.259712", "MEAN_MOTION": 13.98973529, "ECCENTRICITY": 0.0209434, "INCLINATION": 73.8097, "RA_OF_ASC_NODE": 132.4917, "ARG_OF_PERICENTER": 256.1122, "MEAN_ANOMALY": 122.0936, "EPHEMERIS_TYPE": 0, "CLASSIFICATION_TYPE": "U", "NORAD_CAT_ID": 33823, "ELEMENT_SET_NO": 999, "REV_AT_EPOCH": 85744, "BSTAR": 0.00073521704, "MEAN_MOTION_DOT": 1.255e-05, "MEAN_MOTION_DDOT": 0}, "tle": {"line1": "1 33823U 93036BQ  25356.34751458  .00001255  00000+0  73522-3 0  9992", "line2": "2 33823  73.8097 132.4917 0209434 256.1122 122.0936 13.98973529857440"}}, "geometry": {"type": "Point", "coordinates": [119.5241341176808, -33.549206796808264]}}]}